NORAD_CAT_ID,OBJECT_NAME,OBJECT_TYPE,EPOCH,MEAN_MOTION,ECCENTRICITY,INCLINATION,RA_OF_ASC_NODE,ARG_OF_PERICENTER,MEAN_ANOMALY,BSTAR,MEAN_MOTION_DOT,MEAN_MOTION_DDOT,TLE_LINE0,TLE_LINE1,TLE_LINE2,SEMIMAJOR_AXIS,PERIOD,APOGEE,PERIGEE,DECAYED
53009.0,STARLINK-4277,PAYLOAD,2024-07-04 12:29:47,15.0883855,9.98e-05,53.2145,316.7458,87.983,272.1276,0.000111,1.479e-05,0.0,0 STARLINK-4277,1 53009U 22076Z   24186.52068630  .00001479  00000-0  11100-3 0  9992,2 53009  53.2145 316.7458 0000998  87.9830 272.1276 15.08838550110882,6917.885,95.438,540.44,539.059,0.0
53009.0,STARLINK-4277,PAYLOAD,2024-07-04 14:05:10,15.08841036,0.0001082,53.2159,316.4478,100.0356,260.0758,0.00012648,1.726e-05,0.0,0 STARLINK-4277,1 53009U 22076Z   24186.58692550  .00001726  00000-0  12648-3 0  9995,2 53009  53.2159 316.4478 0001082 100.0356 260.0758 15.08841036110425,6917.877,95.437,540.491,538.994,0.0
53009.0,STARLINK-4277,PAYLOAD,2024-07-04 15:40:33,15.08844581,9.32e-05,53.2156,316.1513,91.2847,268.8252,0.00020141,2.92e-05,0.0,0 STARLINK-4277,1 53009U 22076Z   24186.65316435  .00002920  00000-0  20141-3 0  9992,2 53009  53.2156 316.1513 0000932  91.2847 268.8252 15.08844581110432,6917.866,95.437,540.376,539.087,0.0
53009.0,STARLINK-4277,PAYLOAD,2024-07-05 13:55:57,15.08846548,0.000114,53.2171,311.9901,96.0065,264.1057,7.6151e-05,9.25e-06,0.0,0 STARLINK-4277,1 53009U 22076Z   24187.58052117  .00000925  00000-0  76151-4 0  9995,2 53009  53.2171 311.9901 0001140  96.0065 264.1057 15.08846548110572,6917.86,95.437,540.514,538.937,0.0
53009.0,STARLINK-4277,PAYLOAD,2024-07-05 15:31:20,15.08849213,0.0001047,53.2172,311.6941,93.4158,266.6954,0.00017677,2.527e-05,0.0,0 STARLINK-4277,1 53009U 22076Z   24187.64676121  .00002527  00000-0  17677-3 0  9996,2 53009  53.2172 311.6941 0001047  93.4158 266.6954 15.08849213111053,6917.852,95.437,540.442,538.993,0.0
53009.0,STARLINK-4277,PAYLOAD,2024-07-06 01:03:39,15.08840667,7.93e-05,53.2151,309.9079,72.7342,287.3737,4.322e-05,4e-06,0.0,0 STARLINK-4277,1 53009U 22076Z   24188.04420265  .00000400  00000-0  43220-4 0  9999,2 53009  53.2151 309.9079 0000793  72.7342 287.3737 15.08840667111114,6917.878,95.438,540.292,539.195,0.0
53009.0,STARLINK-4277,PAYLOAD,2024-07-06 12:11:21,15.08833048,0.0001391,53.2182,307.8322,108.5122,251.6022,-1.6707e-05,-5.54e-06,0.0,0 STARLINK-4277,1 53009U 22076Z   24188.50789085 -.00000554  00000-0 -16707-4 0  9990,2 53009  53.2182 307.8322 0001391 108.5122 251.6022 15.08833048111188,6917.902,95.438,540.729,538.804,0.0
53009.0,STARLINK-4277,PAYLOAD,2024-07-06 13:46:44,15.08833701,0.0001396,53.2185,307.5323,100.522,259.5929,-3.769e-05,-8.88e-06,0.0,0 STARLINK-4277,1 53009U 22076Z   24188.57413068 -.00000888  00000-0 -37690-4 0  9996,2 53009  53.2185 307.5323 0001396 100.5220 259.5929 15.08833701110723,6917.9,95.438,540.73,538.799,0.0
53009.0,STARLINK-4277,PAYLOAD,2024-07-07 08:51:22,15.08839774,0.0001405,53.2149,303.9599,84.4346,275.6807,0.00013607,1.878e-05,0.0,0 STARLINK-4277,1 53009U 22076Z   24189.36901013  .00001878  00000-0  13607-3 0  9995,2 53009  53.2149 303.9599 0001405  84.4346 275.6807 15.08839774111314,6917.881,95.438,540.718,538.774,0.0
53009.0,STARLINK-4277,PAYLOAD,2024-07-08 13:28:18,15.08843673,0.0001216,53.2166,298.6086,71.4571,288.6553,0.00017034,2.424e-05,0.0,0 STARLINK-4277,1 53009U 22076Z   24190.56132965  .00002424  00000-0  17034-3 0  9997,2 53009  53.2166 298.6086 0001216  71.4571 288.6553 15.08843673111494,6917.869,95.437,540.575,538.893,0.0
53009.0,STARLINK-4277,PAYLOAD,2024-07-08 15:03:41,15.08845097,0.0001227,53.2165,298.3112,70.262,289.8505,0.00018258,2.619e-05,0.0,0 STARLINK-4277,1 53009U 22076Z   24190.62756879  .00002619  00000-0  18258-3 0  9995,2 53009  53.2165 298.3112 0001227  70.2620 289.8505 15.08845097111036,6917.865,95.437,540.579,538.881,0.0
53009.0,STARLINK-4277,PAYLOAD,2024-07-09 13:19:05,15.08844856,0.0001099,53.2161,294.1484,80.8005,279.3111,0.00011371,1.523e-05,0.0,0 STARLINK-4277,1 53009U 22076Z   24191.55492698  .00001523  00000-0  11371-3 0  9996,2 53009  53.2161 294.1484 0001099  80.8005 279.3111 15.08844856111173,6917.866,95.437,540.491,538.97,0.0
53009.0,STARLINK-4277,PAYLOAD,2024-07-10 00:26:47,15.08841977,0.0001155,53.2148,292.0671,73.4019,286.71,0.00022185,3.245e-05,0.0,0 STARLINK-4277,1 53009U 22076Z   24192.01860800  .00003245  00000-0  22185-3 0  9990,2 53009  53.2148 292.0671 0001155  73.4019 286.7100 15.08841977111710,6917.874,95.437,540.538,538.94,0.0
53009.0,STARLINK-4277,PAYLOAD,2024-07-10 13:09:52,15.08841514,0.0001305,53.2173,289.6854,105.6471,254.4665,-1.6833e-05,-5.56e-06,0.0,0 STARLINK-4277,1 53009U 22076Z   24192.54852709 -.00000556  00000-0 -16833-4 0  9995,2 53009  53.2173 289.6854 0001305 105.6471 254.4665 15.08841514111322,6917.876,95.437,540.644,538.838,0.0
53009.0,STARLINK-4277,PAYLOAD,2024-07-10 16:20:38,15.08844399,0.0001259,53.2181,289.0903,107.9428,252.1701,-2.8778e-06,-3.34e-06,0.0,0 STARLINK-4277,1 53009U 22076Z   24192.68100652 -.00000334  00000-0 -28778-5 0  9999,2 53009  53.2181 289.0903 0001259 107.9428 252.1701 15.08844399111347,6917.867,95.437,540.603,538.861,0.0
53009.0,STARLINK-4277,PAYLOAD,2024-07-11 13:00:42,15.08813634,0.000126,53.2179,285.2251,101.8843,258.229,-0.00013555,-2.443e-05,0.0,0 STARLINK-4277,1 53009U 22076Z   24193.54215948 -.00002443  00000-0 -13555-3 0  9998,2 53009  53.2179 285.2251 0001260 101.8843 258.2290 15.08813634111476,6917.961,95.439,540.698,538.954,0.0
53009.0,STARLINK-4277,PAYLOAD,2024-07-12 12:51:27,15.08852321,9.94e-05,53.2169,280.7652,94.4671,265.6434,0.00021359,3.114e-05,0.0,0 STARLINK-4277,1 53009U 22076Z   24194.53573230  .00003114  00000-0  21359-3 0  9994,2 53009  53.2169 280.7652 0000994  94.4671 265.6434 15.08852321112096,6917.843,95.437,540.395,539.02,0.0
53009.0,STARLINK-4277,PAYLOAD,2024-07-12 22:23:46,15.08849616,0.0001101,53.2173,278.978,76.8424,283.269,0.00023104,3.392e-05,0.0,0 STARLINK-4277,1 53009U 22076Z   24194.93317317  .00003392  00000-0  23104-3 0  9998,2 53009  53.2173 278.9780 0001101  76.8424 283.2690 15.08849616111680,6917.851,95.437,540.478,538.954,0.0
53009.0,STARLINK-4277,PAYLOAD,2024-07-13 12:42:15,15.08831787,0.0001193,53.2179,276.3106,114.7138,245.3978,0.00027938,4.16e-05,0.0,0 STARLINK-4277,1 53009U 22076Z   24195.52934701  .00004160  00000-0  27938-3 0  9999,2 53009  53.2179 276.3106 0001193 114.7138 245.3978 15.08831787112246,6917.905,95.438,540.596,538.945,0.0
53009.0,STARLINK-4277,PAYLOAD,2024-07-13 14:17:38,15.08837949,9.38e-05,53.2172,276.0096,94.8556,265.2543,0.00028032,4.176e-05,0.0,0 STARLINK-4277,1 53009U 22076Z   24195.59558341  .00004176  00000-0  28032-3 0  9991,2 53009  53.2172 276.0096 0000938  94.8556 265.2543 15.08837949111785,6917.887,95.438,540.401,539.103,0.0
53009.0,STARLINK-4277,PAYLOAD,2024-07-13 19:03:47,15.08848301,8.18e-05,53.2166,275.1163,88.9172,271.1914,0.00034403,5.193e-05,0.0,0 STARLINK-4277,1 53009U 22076Z   24195.79429611  .00005193  00000-0  34403-3 0  9999,2 53009  53.2166 275.1163 0000818  88.9172 271.1914 15.08848301112286,6917.855,95.437,540.286,539.154,0.0
53009.0,STARLINK-4277,PAYLOAD,2024-07-13 22:14:34,15.08837327,5.86e-05,53.2165,274.5188,77.448,282.6578,7.8073e-05,9.55e-06,0.0,0 STARLINK-4277,1 53009U 22076Z   24195.92678711  .00000955  00000-0  78073-4 0  9994,2 53009  53.2165 274.5188 0000586  77.4480 282.6578 15.08837327111831,6917.889,95.438,540.159,539.348,0.0
53009.0,STARLINK-4277,PAYLOAD,2024-07-14 04:36:06,15.08847615,7.15e-05,53.2184,273.3337,83.6958,276.4116,-6.2635e-05,-1.285e-05,0.0,0 STARLINK-4277,1 53009U 22076Z   24196.19174533 -.00001285  00000-0 -62635-4 0  9993,2 53009  53.2184 273.3337 0000715  83.6958 276.4116 15.08847615112345,6917.857,95.437,540.217,539.227,0.0
53009.0,STARLINK-4277,PAYLOAD,2024-07-14 12:33:01,15.08859099,8.05e-05,53.2172,271.8464,76.6191,283.4891,3.957e-05,3.42e-06,0.0,0 STARLINK-4277,1 53009U 22076Z   24196.52293273  .00000342  00000-0  39570-4 0  9996,2 53009  53.2172 271.8464 0000805  76.6191 283.4891 15.08859099112399,6917.822,95.436,540.244,539.13,0.0
53009.0,STARLINK-4277,PAYLOAD,2024-07-14 22:05:20,15.08852597,0.000106,53.2174,270.062,67.1828,292.9276,2.0866e-07,-2.84e-06,0.0,0 STARLINK-4277,1 53009U 22076Z   24196.92037500 -.00000284  00000-0  20866-6 0  9995,2 53009  53.2174 270.0620 0001060  67.1828 292.9276 15.08852597112457,6917.842,95.437,540.44,538.974,0.0
53009.0,STARLINK-4277,PAYLOAD,2024-07-15 12:23:48,15.08848872,0.0001036,53.2159,267.3837,59.1246,300.9848,-1.8486e-05,-5.82e-06,0.0,0 STARLINK-4277,1 53009U 22076Z   24197.51653629 -.00000582  00000-0 -18486-4 0  9992,2 53009  53.2159 267.3837 0001036  59.1246 300.9848 15.08848872112543,6917.853,95.437,540.435,539.002,0.0
53009.0,STARLINK-4277,PAYLOAD,2024-07-15 21:56:07,15.08848965,0.0001104,53.2165,265.6016,64.4142,295.6965,-1.0855e-05,-4.61e-06,0.0,0 STARLINK-4277,1 53009U 22076Z   24197.91397379 -.00000461  00000-0 -10855-4 0  9991,2 53009  53.2165 265.6016 0001104  64.4142 295.6965 15.08848965112138,6917.853,95.437,540.482,538.954,0.0
53009.0,STARLINK-4277,PAYLOAD,2024-07-16 10:39:12,15.08845404,0.0001256,53.216,263.2231,54.9792,305.1318,3.4612e-05,2.63e-06,0.0,0 STARLINK-4277,1 53009U 22076Z   24198.44389437  .00000263  00000-0  34612-4 0  9991,2 53009  53.2160 263.2231 0001256  54.9792 305.1318 15.08845404112212,6917.864,95.437,540.598,538.86,0.0
53009.0,STARLINK-4277,PAYLOAD,2024-07-17 10:29:59,15.08843105,9.24e-05,53.2137,258.7587,70.2331,289.8761,0.00010905,1.448e-05,0.0,0 STARLINK-4277,1 53009U 22076Z   24199.43749014  .00001448  00000-0  10905-3 0  9996,2 53009  53.2137 258.7587 0000924  70.2331 289.8761 15.08843105112834,6917.871,95.437,540.375,539.097,0.0
53009.0,STARLINK-4277,PAYLOAD,2024-07-18 10:20:46,15.08837439,0.0001316,53.2165,254.2993,95.2162,264.898,2.6593e-06,-2.46e-06,0.0,0 STARLINK-4277,1 53009U 22076Z   24200.43109858 -.00000246  00000-0  26593-5 0  9993,2 53009  53.2165 254.2993 0001316  95.2162 264.8980 15.08837439112987,6917.888,95.438,540.664,538.843,0.0
